[{"OBJECT_NAME":"2021-022F","OBJECT_ID":"2021-022F","EPOCH":"2026-04-05T20:04:31.212768","MEAN_MOTION":15.31925085,"ECCENTRICITY":0.0009741,"INCLINATION":97.3954,"RA_OF_ASC_NODE":356.6338,"ARG_OF_PERICENTER":1.6533,"MEAN_ANOMALY":358.4739,"EPHEMERIS_TYPE":0,"CLASSIFICATION_TYPE":"U","NORAD_CAT_ID":47937,"ELEMENT_SET_NO":999,"REV_AT_EPOCH":27863,"BSTAR":0.00038513,"MEAN_MOTION_DOT":0.00011815,"MEAN_MOTION_DDOT":0},{"OBJECT_NAME":"UNISAT-7","OBJECT_ID":"2021-022P","EPOCH":"2026-04-05T16:27:36.696960","MEAN_MOTION":15.38586855,"ECCENTRICITY":0.0008672,"INCLINATION":97.3945,"RA_OF_ASC_NODE":359.9404,"ARG_OF_PERICENTER":347.5287,"MEAN_ANOMALY":12.5742,"EPHEMERIS_TYPE":0,"CLASSIFICATION_TYPE":"U","NORAD_CAT_ID":47945,"ELEMENT_SET_NO":999,"REV_AT_EPOCH":27870,"BSTAR":0.00052085,"MEAN_MOTION_DOT":0.00019811,"MEAN_MOTION_DDOT":0},{"OBJECT_NAME":"2021-022X","OBJECT_ID":"2021-022X","EPOCH":"2026-04-05T20:03:47.488320","MEAN_MOTION":15.63281356,"ECCENTRICITY":0.0003041,"INCLINATION":97.3952,"RA_OF_ASC_NODE":8.9587,"ARG_OF_PERICENTER":344.5314,"MEAN_ANOMALY":15.5851,"EPHEMERIS_TYPE":0,"CLASSIFICATION_TYPE":"U","NORAD_CAT_ID":47953,"ELEMENT_SET_NO":999,"REV_AT_EPOCH":27916,"BSTAR":0.00093375,"MEAN_MOTION_DOT":0.00086225,"MEAN_MOTION_DDOT":0},{"OBJECT_NAME":"2021-022AC","OBJECT_ID":"2021-022AC","EPOCH":"2026-04-03T02:25:12.148320","MEAN_MOTION":15.7693212,"ECCENTRICITY":0.00010134,"INCLINATION":97.3881,"RA_OF_ASC_NODE":9.3859,"ARG_OF_PERICENTER":35.1637,"MEAN_ANOMALY":324.9696,"EPHEMERIS_TYPE":0,"CLASSIFICATION_TYPE":"U","NORAD_CAT_ID":47958,"ELEMENT_SET_NO":999,"REV_AT_EPOCH":27806,"BSTAR":0.0014736667,"MEAN_MOTION_DOT":0.00243899,"MEAN_MOTION_DDOT":0},{"OBJECT_NAME":"GLOBAL-9","OBJECT_ID":"2021-023G","EPOCH":"2026-04-05T14:06:23.189760","MEAN_MOTION":15.43819477,"ECCENTRICITY":0.0004208,"INCLINATION":44.9818,"RA_OF_ASC_NODE":297.6974,"ARG_OF_PERICENTER":231.5116,"MEAN_ANOMALY":128.5395,"EPHEMERIS_TYPE":0,"CLASSIFICATION_TYPE":"U","NORAD_CAT_ID":47971,"ELEMENT_SET_NO":999,"REV_AT_EPOCH":28371,"BSTAR":0.00053237,"MEAN_MOTION_DOT":0.00024382,"MEAN_MOTION_DDOT":0},{"OBJECT_NAME":"AII-BRAVO","OBJECT_ID":"2021-034C","EPOCH":"2026-04-05T17:30:28.047456","MEAN_MOTION":15.02919335,"ECCENTRICITY":0.0007022,"INCLINATION":97.5679,"RA_OF_ASC_NODE":152.2984,"ARG_OF_PERICENTER":138.0864,"MEAN_ANOMALY":222.09,"EPHEMERIS_TYPE":0,"CLASSIFICATION_TYPE":"U","NORAD_CAT_ID":48270,"ELEMENT_SET_NO":999,"REV_AT_EPOCH":26873,"BSTAR":0.00039881,"MEAN_MOTION_DOT":5.299e-5,"MEAN_MOTION_DDOT":0},{"OBJECT_NAME":"TYVAK-182A","OBJECT_ID":"2021-034D","EPOCH":"2026-04-05T16:47:09.680640","MEAN_MOTION":15.05502412,"ECCENTRICITY":0.000533,"INCLINATION":97.5793,"RA_OF_ASC_NODE":155.8885,"ARG_OF_PERICENTER":202.1911,"MEAN_ANOMALY":157.9085,"EPHEMERIS_TYPE":0,"CLASSIFICATION_TYPE":"U","NORAD_CAT_ID":48271,"ELEMENT_SET_NO":999,"REV_AT_EPOCH":26892,"BSTAR":0.00049504,"MEAN_MOTION_DOT":7.063e-5,"MEAN_MOTION_DDOT":0},{"OBJECT_NAME":"CSS (TIANHE)","OBJECT_ID":"2021-035A","EPOCH":"2026-04-05T21:35:59.578368","MEAN_MOTION":15.61975413,"ECCENTRICITY":0.0003645,"INCLINATION":41.4683,"RA_OF_ASC_NODE":42.4237,"ARG_OF_PERICENTER":135.7211,"MEAN_ANOMALY":224.3921,"EPHEMERIS_TYPE":0,"CLASSIFICATION_TYPE":"U","NORAD_CAT_ID":48274,"ELEMENT_SET_NO":999,"REV_AT_EPOCH":28186,"BSTAR":0.00033283,"MEAN_MOTION_DOT":0.00029649,"MEAN_MOTION_DDOT":0},{"OBJECT_NAME":"TYVAK-0130","OBJECT_ID":"2021-041BF","EPOCH":"2026-04-05T03:15:12.447936","MEAN_MOTION":15.26578152,"ECCENTRICITY":0.00087649,"INCLINATION":52.9988,"RA_OF_ASC_NODE":5.0768,"ARG_OF_PERICENTER":308.1163,"MEAN_ANOMALY":51.9043,"EPHEMERIS_TYPE":0,"CLASSIFICATION_TYPE":"U","NORAD_CAT_ID":48606,"ELEMENT_SET_NO":999,"REV_AT_EPOCH":26922,"BSTAR":0.00043079603,"MEAN_MOTION_DOT":0.00011101,"MEAN_MOTION_DDOT":0},{"OBJECT_NAME":"HAIYANG-2D","OBJECT_ID":"2021-043A","EPOCH":"2026-04-05T20:28:28.761024","MEAN_MOTION":13.83374369,"ECCENTRICITY":0.0011219,"INCLINATION":65.9962,"RA_OF_ASC_NODE":124.7887,"ARG_OF_PERICENTER":276.6816,"MEAN_ANOMALY":83.2975,"EPHEMERIS_TYPE":0,"CLASSIFICATION_TYPE":"U","NORAD_CAT_ID":48621,"ELEMENT_SET_NO":999,"REV_AT_EPOCH":24654,"BSTAR":0.00033542,"MEAN_MOTION_DOT":2.88e-6,"MEAN_MOTION_DDOT":0},{"OBJECT_NAME":"2021-050D","OBJECT_ID":"2021-050D","EPOCH":"2026-04-05T20:47:41.145216","MEAN_MOTION":15.24070439,"ECCENTRICITY":0.0009777,"INCLINATION":97.3363,"RA_OF_ASC_NODE":173.5752,"ARG_OF_PERICENTER":107.1994,"MEAN_ANOMALY":253.0314,"EPHEMERIS_TYPE":0,"CLASSIFICATION_TYPE":"U","NORAD_CAT_ID":48843,"ELEMENT_SET_NO":999,"REV_AT_EPOCH":26795,"BSTAR":0.00027988,"MEAN_MOTION_DOT":6.732e-5,"MEAN_MOTION_DDOT":0},{"OBJECT_NAME":"TYVAK-0173","OBJECT_ID":"2021-059P","EPOCH":"2026-04-05T19:19:46.914240","MEAN_MOTION":14.81643981,"ECCENTRICITY":0.0007234,"INCLINATION":96.0076,"RA_OF_ASC_NODE":190.1644,"ARG_OF_PERICENTER":275.4355,"MEAN_ANOMALY":84.6037,"EPHEMERIS_TYPE":0,"CLASSIFICATION_TYPE":"U","NORAD_CAT_ID":48892,"ELEMENT_SET_NO":999,"REV_AT_EPOCH":25752,"BSTAR":0.00041634,"MEAN_MOTION_DOT":3.244e-5,"MEAN_MOTION_DDOT":0},{"OBJECT_NAME":"MANDRAKE 2 ABLE","OBJECT_ID":"2021-059AE","EPOCH":"2026-04-05T18:35:43.211616","MEAN_MOTION":15.52149979,"ECCENTRICITY":0.0004351,"INCLINATION":97.7052,"RA_OF_ASC_NODE":280.1945,"ARG_OF_PERICENTER":250.1741,"MEAN_ANOMALY":109.9042,"EPHEMERIS_TYPE":0,"CLASSIFICATION_TYPE":"U","NORAD_CAT_ID":48907,"ELEMENT_SET_NO":999,"REV_AT_EPOCH":26588,"BSTAR":0.00041402,"MEAN_MOTION_DOT":0.00024988,"MEAN_MOTION_DDOT":0},{"OBJECT_NAME":"MANDRAKE 2 BAKER","OBJECT_ID":"2021-059AF","EPOCH":"2026-04-05T18:33:24.977664","MEAN_MOTION":15.56011766,"ECCENTRICITY":0.0003072,"INCLINATION":97.7032,"RA_OF_ASC_NODE":282.5985,"ARG_OF_PERICENTER":241.5328,"MEAN_ANOMALY":118.5617,"EPHEMERIS_TYPE":0,"CLASSIFICATION_TYPE":"U","NORAD_CAT_ID":48908,"ELEMENT_SET_NO":999,"REV_AT_EPOCH":26602,"BSTAR":0.00044289,"MEAN_MOTION_DOT":0.00030783,"MEAN_MOTION_DDOT":0},{"OBJECT_NAME":"PACE-1","OBJECT_ID":"2021-059AG","EPOCH":"2026-04-05T12:13:53.558688","MEAN_MOTION":15.69999021,"ECCENTRICITY":0.00030035,"INCLINATION":97.6842,"RA_OF_ASC_NODE":286.0476,"ARG_OF_PERICENTER":206.3736,"MEAN_ANOMALY":153.7373,"EPHEMERIS_TYPE":0,"CLASSIFICATION_TYPE":"U","NORAD_CAT_ID":48909,"ELEMENT_SET_NO":999,"REV_AT_EPOCH":26636,"BSTAR":0.00057218721,"MEAN_MOTION_DOT":0.00068989,"MEAN_MOTION_DDOT":0},{"OBJECT_NAME":"YAM-3","OBJECT_ID":"2021-059AN","EPOCH":"2026-04-05T11:05:51.686592","MEAN_MOTION":15.46962196,"ECCENTRICITY":0.0004135,"INCLINATION":97.6991,"RA_OF_ASC_NODE":277.7558,"ARG_OF_PERICENTER":252.8222,"MEAN_ANOMALY":107.2574,"EPHEMERIS_TYPE":0,"CLASSIFICATION_TYPE":"U","NORAD_CAT_ID":48915,"ELEMENT_SET_NO":999,"REV_AT_EPOCH":26574,"BSTAR":0.00031466491,"MEAN_MOTION_DOT":0.00015782,"MEAN_MOTION_DDOT":0},{"OBJECT_NAME":"FARADAY_PHOENIX","OBJECT_ID":"2021-059AX","EPOCH":"2026-04-05T18:50:13.759872","MEAN_MOTION":15.64870526,"ECCENTRICITY":0.0006197,"INCLINATION":97.6898,"RA_OF_ASC_NODE":286.6125,"ARG_OF_PERICENTER":231.1439,"MEAN_ANOMALY":128.9267,"EPHEMERIS_TYPE":0,"CLASSIFICATION_TYPE":"U","NORAD_CAT_ID":48924,"ELEMENT_SET_NO":999,"REV_AT_EPOCH":26629,"BSTAR":0.00096429,"MEAN_MOTION_DOT":0.00094946,"MEAN_MOTION_DDOT":0}]
