2021-022F               
1 47937U 21022F   26095.83647237  .00011815  00000+0  38513-3 0  9997
2 47937  97.3954 356.6338 0009741   1.6533 358.4739 15.31925085278636
UNISAT-7                
1 47945U 21022P   26095.68584140  .00019811  00000+0  52085-3 0  9996
2 47945  97.3945 359.9404 0008672 347.5287  12.5742 15.38586855278700
2021-022X               
1 47953U 21022X   26095.83596630  .00086225  00000+0  93375-3 0  9999
2 47953  97.3952   8.9587 0003041 344.5314  15.5851 15.63281356279164
2021-022AC              
1 47958U 21022AC  26093.10083505  .00243899  00000+0  14737-2 0  9990
2 47958  97.3881   9.3859 0001013  35.1637 324.9696 15.76932120278063
GLOBAL-9                
1 47971U 21023G   26095.58776840  .00024382  00000+0  53237-3 0  9994
2 47971  44.9818 297.6974 0004208 231.5116 128.5395 15.43819477283714
AII-BRAVO               
1 48270U 21034C   26095.72949129  .00005299  00000+0  39881-3 0  9992
2 48270  97.5679 152.2984 0007022 138.0864 222.0900 15.02919335268737
TYVAK-182A              
1 48271U 21034D   26095.69941760  .00007063  00000+0  49504-3 0  9996
2 48271  97.5793 155.8885 0005330 202.1911 157.9085 15.05502412268928
CSS (TIANHE)            
1 48274U 21035A   26095.89999512  .00029649  00000+0  33283-3 0  9991
2 48274  41.4683  42.4237 0003645 135.7211 224.3921 15.61975413281863
TYVAK-0130              
1 48606U 21041BF  26095.13556074  .00011101  00000+0  43080-3 0  9996
2 48606  52.9988   5.0768 0008764 308.1163  51.9043 15.26578152269225
HAIYANG-2D              
1 48621U 21043A   26095.85311066  .00000288  00000+0  33542-3 0  9990
2 48621  65.9962 124.7887 0011219 276.6816  83.2975 13.83374369246549
2021-050D               
1 48843U 21050D   26095.86644844  .00006732  00000+0  27988-3 0  9995
2 48843  97.3363 173.5752 0009777 107.1994 253.0314 15.24070439267953
TYVAK-0173              
1 48892U 21059P   26095.80540410  .00003244  00000+0  41634-3 0  9995
2 48892  96.0076 190.1644 0007234 275.4355  84.6037 14.81643981257527
MANDRAKE 2 ABLE         
1 48907U 21059AE  26095.77480569  .00024988  00000+0  41402-3 0  9997
2 48907  97.7052 280.1945 0004351 250.1741 109.9042 15.52149979265888
MANDRAKE 2 BAKER        
1 48908U 21059AF  26095.77320576  .00030783  00000+0  44289-3 0  9995
2 48908  97.7032 282.5985 0003072 241.5328 118.5617 15.56011766266028
PACE-1                  
1 48909U 21059AG  26095.50964767  .00068989  00000+0  57219-3 0  9999
2 48909  97.6842 286.0476 0003003 206.3736 153.7373 15.69999021266367
YAM-3                   
1 48915U 21059AN  26095.46240378  .00015782  00000+0  31466-3 0  9995
2 48915  97.6991 277.7558 0004135 252.8222 107.2574 15.46962196265746
FARADAY_PHOENIX         
1 48924U 21059AX  26095.78488148  .00094946  00000+0  96429-3 0  9998
2 48924  97.6898 286.6125 0006197 231.1439 128.9267 15.64870526266296
